KSEA 290353Z 01008KT 10SM SCT200 19/09 A3004 RMK AO2 SLP179 T01940094
